{"type": "FeatureCollection", "features": [ {"type": "Feature", "properties": {"norad_id": 31241, "name": "FENGYUN 1C DEB", "group": "fengyun-1c-debris", "lat": -51.5116923688034, "lon": 160.63933777917052, "alt_km": 816.3363624796784, "timestamp": "2025-12-26T22:28:06.065778+00:00", "meta": {"OBJECT_NAME": "FENGYUN 1C DEB", "OBJECT_ID": "1999-025BLX", "EPOCH": "2025-12-25T21:40:43.645152", "MEAN_MOTION": 14.38743196, "ECCENTRICITY": 0.0067062, "INCLINATION": 99.2357, "RA_OF_ASC_NODE": 147.7201, "ARG_OF_PERICENTER": 142.8246, "MEAN_ANOMALY": 217.761, "EPHEMERIS_TYPE": 0, "CLASSIFICATION_TYPE": "U", "NORAD_CAT_ID": 31241, "ELEMENT_SET_NO": 999, "REV_AT_EPOCH": 97880, "BSTAR": 0.00055397, "MEAN_MOTION_DOT": 1.696e-05, "MEAN_MOTION_DDOT": 0}, "tle": {"line1": "1 31241U 99025BLX 25359.90328293  .00001696  00000+0  55397-3 0  9999", "line2": "2 31241  99.2357 147.7201 0067062 142.8246 217.7610 14.38743196978800"}}, "geometry": {"type": "Point", "coordinates": [160.63933777917052, -51.5116923688034]}}, {"type": "Feature", "properties": {"norad_id": 31243, "name": "FENGYUN 1C DEB", "group": "fengyun-1c-debris", "lat": 59.31127256981216, "lon": 25.705858316551588, "alt_km": 845.1181689562345, "timestamp": "2025-12-26T22:28:06.065788+00:00", "meta": {"OBJECT_NAME": "FENGYUN 1C DEB", "OBJECT_ID": "1999-025BLZ", "EPOCH": "2025-12-26T08:31:47.157024", "MEAN_MOTION": 14.07202947, "ECCENTRICITY": 0.00662489, "INCLINATION": 98.7491, "RA_OF_ASC_NODE": 40.1826, "ARG_OF_PERICENTER": 130.4229, "MEAN_ANOMALY": 230.2746, "EPHEMERIS_TYPE": 0, "CLASSIFICATION_TYPE": "U", "NORAD_CAT_ID": 31243, "ELEMENT_SET_NO": 999, "REV_AT_EPOCH": 69499, "BSTAR": 0.00065328956, "MEAN_MOTION_DOT": 1.075e-05, "MEAN_MOTION_DDOT": 0}, "tle": {"line1": "1 31243U 99025BLZ 25360.35540691  .00001075  00000+0  65329-3 0  9997", "line2": "2 31243  98.7491  40.1826 0066248 130.4229 230.2746 14.07202947694998"}}, "geometry": {"type": "Point", "coordinates": [25.705858316551588, 59.31127256981216]}}, {"type": "Feature", "properties": {"norad_id": 31244, "name": "FENGYUN 1C DEB", "group": "fengyun-1c-debris", "lat": 35.87358699006499, "lon": 57.91747788430092, "alt_km": 880.6506653041843, "timestamp": "2025-12-26T22:28:06.065798+00:00", "meta": {"OBJECT_NAME": "FENGYUN 1C DEB", "OBJECT_ID": "1999-025BMA", "EPOCH": "2025-12-22T10:42:55.008864", "MEAN_MOTION": 14.0626394, "ECCENTRICITY": 0.01029519, "INCLINATION": 99.0337, "RA_OF_ASC_NODE": 60.0445, "ARG_OF_PERICENTER": 148.0726, "MEAN_ANOMALY": 212.6736, "EPHEMERIS_TYPE": 0, "CLASSIFICATION_TYPE": "U", "NORAD_CAT_ID": 31244, "ELEMENT_SET_NO": 999, "REV_AT_EPOCH": 57776, "BSTAR": 0.00030551963, "MEAN_MOTION_DOT": 4.84e-06, "MEAN_MOTION_DDOT": 0}, "tle": {"line1": "1 31244U 99025BMA 25356.44647001  .00000484  00000+0  30552-3 0  9999", "line2": "2 31244  99.0337  60.0445 0102951 148.0726 212.6736 14.06263940577766"}}, "geometry": {"type": "Point", "coordinates": [57.91747788430092, 35.87358699006499]}}, {"type": "Feature", "properties": {"norad_id": 31246, "name": "FENGYUN 1C DEB", "group": "fengyun-1c-debris", "lat": -1.4031729003349338, "lon": -152.20800346316574, "alt_km": 808.6307142998103, "timestamp": "2025-12-26T22:28:06.065809+00:00", "meta": {"OBJECT_NAME": "FENGYUN 1C DEB", "OBJECT_ID": "1999-025BMC", "EPOCH": "2025-12-25T19:10:26.013216", "MEAN_MOTION": 14.07301206, "ECCENTRICITY": 0.01475516, "INCLINATION": 98.8114, "RA_OF_ASC_NODE": 206.4652, "ARG_OF_PERICENTER": 307.3273, "MEAN_ANOMALY": 51.4527, "EPHEMERIS_TYPE": 0, "CLASSIFICATION_TYPE": "U", "NORAD_CAT_ID": 31246, "ELEMENT_SET_NO": 999, "REV_AT_EPOCH": 61936, "BSTAR": 0.0023125012, "MEAN_MOTION_DOT": 4.244e-05, "MEAN_MOTION_DDOT": 0}, "tle": {"line1": "1 31246U 99025BMC 25359.79891219  .00004244  00000+0  23125-2 0  9999", "line2": "2 31246  98.8114 206.4652 0147551 307.3273  51.4527 14.07301206619365"}}, "geometry": {"type": "Point", "coordinates": [-152.20800346316574, -1.4031729003349338]}}, {"type": "Feature", "properties": {"norad_id": 31247, "name": "FENGYUN 1C DEB", "group": "fengyun-1c-debris", "lat": -80.40582845709054, "lon": -32.88006260569262, "alt_km": 899.2521581305791, "timestamp": "2025-12-26T22:28:06.065820+00:00", "meta": {"OBJECT_NAME": "FENGYUN 1C DEB", "OBJECT_ID": "1999-025BMD", "EPOCH": "2025-12-26T11:44:45.850848", "MEAN_MOTION": 14.05167915, "ECCENTRICITY": 0.00594588, "INCLINATION": 99.3666, "RA_OF_ASC_NODE": 249.1153, "ARG_OF_PERICENTER": 25.3771, "MEAN_ANOMALY": 148.5587, "EPHEMERIS_TYPE": 0, "CLASSIFICATION_TYPE": "U", "NORAD_CAT_ID": 31247, "ELEMENT_SET_NO": 999, "REV_AT_EPOCH": 95714, "BSTAR": 0.0010173318, "MEAN_MOTION_DOT": 1.622e-05, "MEAN_MOTION_DDOT": 0}, "tle": {"line1": "1 31247U 99025BMD 25360.48941957  .00001622  00000+0  10173-2 0  9999", "line2": "2 31247  99.3666 249.1153 0059458  25.3771 148.5587 14.05167915957142"}}, "geometry": {"type": "Point", "coordinates": [-32.88006260569262, -80.40582845709054]}}, {"type": "Feature", "properties": {"norad_id": 31248, "name": "FENGYUN 1C DEB", "group": "fengyun-1c-debris", "lat": -34.1284739242843, "lon": -127.94962608536619, "alt_km": 881.8401920923279, "timestamp": "2025-12-26T22:28:06.065830+00:00", "meta": {"OBJECT_NAME": "FENGYUN 1C DEB", "OBJECT_ID": "1999-025BME", "EPOCH": "2025-12-26T02:36:42.397056", "MEAN_MOTION": 13.92804198, "ECCENTRICITY": 0.01100359, "INCLINATION": 99.2628, "RA_OF_ASC_NODE": 57.5732, "ARG_OF_PERICENTER": 274.8692, "MEAN_ANOMALY": 114.5293, "EPHEMERIS_TYPE": 0, "CLASSIFICATION_TYPE": "U", "NORAD_CAT_ID": 31248, "ELEMENT_SET_NO": 999, "REV_AT_EPOCH": 95010, "BSTAR": 0.00060879414, "MEAN_MOTION_DOT": 7.82e-06, "MEAN_MOTION_DDOT": 0}, "tle": {"line1": "1 31248U 99025BME 25360.10882404  .00000782  00000+0  60879-3 0  9995", "line2": "2 31248  99.2628  57.5732 0110035 274.8692 114.5293 13.92804198950108"}}, "geometry": {"type": "Point", "coordinates": [-127.94962608536619, -34.1284739242843]}}, {"type": "Feature", "properties": {"norad_id": 31250, "name": "FENGYUN 1C DEB", "group": "fengyun-1c-debris", "lat": -30.18787272776584, "lon": 24.947369804740607, "alt_km": 822.652864251404, "timestamp": "2025-12-26T22:28:06.065841+00:00", "meta": {"OBJECT_NAME": "FENGYUN 1C DEB", "OBJECT_ID": "1999-025BMG", "EPOCH": "2025-12-26T07:45:53.081856", "MEAN_MOTION": 14.03133084, "ECCENTRICITY": 0.01329344, "INCLINATION": 98.3872, "RA_OF_ASC_NODE": 209.3058, "ARG_OF_PERICENTER": 259.436, "MEAN_ANOMALY": 99.181, "EPHEMERIS_TYPE": 0, "CLASSIFICATION_TYPE": "U", "NORAD_CAT_ID": 31250, "ELEMENT_SET_NO": 999, "REV_AT_EPOCH": 95708, "BSTAR": 0.001109166, "MEAN_MOTION_DOT": 1.826e-05, "MEAN_MOTION_DDOT": 0}, "tle": {"line1": "1 31250U 99025BMG 25360.32353104  .00001826  00000+0  11092-2 0  9994", "line2": "2 31250  98.3872 209.3058 0132934 259.4360  99.1810 14.03133084957082"}}, "geometry": {"type": "Point", "coordinates": [24.947369804740607, -30.18787272776584]}}, {"type": "Feature", "properties": {"norad_id": 31252, "name": "FENGYUN 1C DEB", "group": "fengyun-1c-debris", "lat": -0.6814567473846693, "lon": 19.48699812331423, "alt_km": 857.4466625727, "timestamp": "2025-12-26T22:28:06.065851+00:00", "meta": {"OBJECT_NAME": "FENGYUN 1C DEB", "OBJECT_ID": "1999-025BMJ", "EPOCH": "2025-12-24T18:46:53.351616", "MEAN_MOTION": 14.40204702, "ECCENTRICITY": 0.02143798, "INCLINATION": 98.3164, "RA_OF_ASC_NODE": 17.2934, "ARG_OF_PERICENTER": 136.0097, "MEAN_ANOMALY": 225.8379, "EPHEMERIS_TYPE": 0, "CLASSIFICATION_TYPE": "U", "NORAD_CAT_ID": 31252, "ELEMENT_SET_NO": 999, "REV_AT_EPOCH": 97380, "BSTAR": 0.00029483577, "MEAN_MOTION_DOT": 1.174e-05, "MEAN_MOTION_DDOT": 0}, "tle": {"line1": "1 31252U 99025BMJ 25358.78256194  .00001174  00000+0  29484-3 0  9995", "line2": "2 31252  98.3164  17.2934 0214379 136.0097 225.8379 14.40204702973801"}}, "geometry": {"type": "Point", "coordinates": [19.48699812331423, -0.6814567473846693]}}, {"type": "Feature", "properties": {"norad_id": 31253, "name": "FENGYUN 1C DEB", "group": "fengyun-1c-debris", "lat": 47.51543727143814, "lon": 55.898307520929876, "alt_km": 666.3039089704407, "timestamp": "2025-12-26T22:28:06.065861+00:00", "meta": {"OBJECT_NAME": "FENGYUN 1C DEB", "OBJECT_ID": "1999-025BMK", "EPOCH": "2025-12-21T10:31:09.949440", "MEAN_MOTION": 14.03607251, "ECCENTRICITY": 0.02906334, "INCLINATION": 99.0756, "RA_OF_ASC_NODE": 60.4551, "ARG_OF_PERICENTER": 66.7312, "MEAN_ANOMALY": 296.4166, "EPHEMERIS_TYPE": 0, "CLASSIFICATION_TYPE": "U", "NORAD_CAT_ID": 31253, "ELEMENT_SET_NO": 999, "REV_AT_EPOCH": 69120, "BSTAR": 6.5782528e-05, "MEAN_MOTION_DOT": 1.04e-06, "MEAN_MOTION_DDOT": 0}, "tle": {"line1": "1 31253U 99025BMK 25355.43830960  .00000104  00000+0  65783-4 0  9999", "line2": "2 31253  99.0756  60.4551 0290633  66.7312 296.4166 14.03607251691202"}}, "geometry": {"type": "Point", "coordinates": [55.898307520929876, 47.51543727143814]}}, {"type": "Feature", "properties": {"norad_id": 31254, "name": "FENGYUN 1C DEB", "group": "fengyun-1c-debris", "lat": -24.050845457322865, "lon": 54.19093119180133, "alt_km": 884.2100534494984, "timestamp": "2025-12-26T22:28:06.065872+00:00", "meta": {"OBJECT_NAME": "FENGYUN 1C DEB", "OBJECT_ID": "1999-025BML", "EPOCH": "2025-12-24T16:01:08.448960", "MEAN_MOTION": 14.36394429, "ECCENTRICITY": 0.01518936, "INCLINATION": 98.4606, "RA_OF_ASC_NODE": 48.1531, "ARG_OF_PERICENTER": 166.6085, "MEAN_ANOMALY": 324.1697, "EPHEMERIS_TYPE": 0, "CLASSIFICATION_TYPE": "U", "NORAD_CAT_ID": 31254, "ELEMENT_SET_NO": 999, "REV_AT_EPOCH": 97687, "BSTAR": 0.00049743743, "MEAN_MOTION_DOT": 1.616e-05, "MEAN_MOTION_DDOT": 0}, "tle": {"line1": "1 31254U 99025BML 25358.66745890  .00001616  00000+0  49744-3 0  9992", "line2": "2 31254  98.4606  48.1531 0151893 166.6085 324.1697 14.36394429976875"}}, "geometry": {"type": "Point", "coordinates": [54.19093119180133, -24.050845457322865]}}]}